; Y print-motif step-loss characterization generated by generate_y_step_loss_test_gcode.py
; Source motif: TB6600 housing travel near the observed Y offset failure
; Endstop verification key: stepper_y
; Z characterization height: 10.000
; Y endstop: -14.800
; Y high-stress anchor target: -9.800
; Stress profiles: accel_2500, accel_3500, accel_4500, speed_300, speed_350, speed_400, scv_3, scv_5, scv_8
; Cycles per profile: 10
; Total endstop checks: 90
M117 Y print-motif characterization
RESPOND TYPE=echo MSG="Y print-motif characterization: homing XYZ, moving to Z10.000, then running 90 checks."
T0
G90
M400
G28 X Y Z
M400
G1 Z10.000 F600
M400
RESPOND TYPE=echo MSG="Y print-motif profile accel_2500: velocity 350 mm/s, accel 2500 mm/s^2, SCV 5, 10 cycles."
; Check 1/90: profile=accel_2500 velocity=350 accel=2500 scv=5 cycle=1
SET_VELOCITY_LIMIT VELOCITY=350 ACCEL=1000 SQUARE_CORNER_VELOCITY=5
G1 X59.860 Y84.042 Z10.000 F21000
M400
SET_VELOCITY_LIMIT VELOCITY=350 ACCEL=2500 SQUARE_CORNER_VELOCITY=5
G1 X59.860 Y84.936 F21000
G1 X70.528 Y83.183 F21000
G1 X70.528 Y66.936 F21000
G1 X100.985 Y-9.800 F21000
G1 X100.025 Y-9.800 F21000
G1 X100.025 Y-8.908 F21000
M400
SET_VELOCITY_LIMIT VELOCITY=20 ACCEL=500 SQUARE_CORNER_VELOCITY=5
G1 X100.025 Y-14.800 F1200
M400
G4 P100
QUERY_ENDSTOPS
Y_STEP_LOSS_ASSERT_ENDSTOP PROFILE=accel_2500 VELOCITY=350 ACCEL=2500 SCV=5 CYCLE=1 STEP=1
; Check 2/90: profile=accel_2500 velocity=350 accel=2500 scv=5 cycle=2
SET_VELOCITY_LIMIT VELOCITY=350 ACCEL=1000 SQUARE_CORNER_VELOCITY=5
G1 X59.860 Y84.042 Z10.000 F21000
M400
SET_VELOCITY_LIMIT VELOCITY=350 ACCEL=2500 SQUARE_CORNER_VELOCITY=5
G1 X59.860 Y84.936 F21000
G1 X70.528 Y83.183 F21000
G1 X70.528 Y66.936 F21000
G1 X100.985 Y-9.800 F21000
G1 X100.025 Y-9.800 F21000
G1 X100.025 Y-8.908 F21000
M400
SET_VELOCITY_LIMIT VELOCITY=20 ACCEL=500 SQUARE_CORNER_VELOCITY=5
G1 X100.025 Y-14.800 F1200
M400
G4 P100
QUERY_ENDSTOPS
Y_STEP_LOSS_ASSERT_ENDSTOP PROFILE=accel_2500 VELOCITY=350 ACCEL=2500 SCV=5 CYCLE=2 STEP=2
; Check 3/90: profile=accel_2500 velocity=350 accel=2500 scv=5 cycle=3
SET_VELOCITY_LIMIT VELOCITY=350 ACCEL=1000 SQUARE_CORNER_VELOCITY=5
G1 X59.860 Y84.042 Z10.000 F21000
M400
SET_VELOCITY_LIMIT VELOCITY=350 ACCEL=2500 SQUARE_CORNER_VELOCITY=5
G1 X59.860 Y84.936 F21000
G1 X70.528 Y83.183 F21000
G1 X70.528 Y66.936 F21000
G1 X100.985 Y-9.800 F21000
G1 X100.025 Y-9.800 F21000
G1 X100.025 Y-8.908 F21000
M400
SET_VELOCITY_LIMIT VELOCITY=20 ACCEL=500 SQUARE_CORNER_VELOCITY=5
G1 X100.025 Y-14.800 F1200
M400
G4 P100
QUERY_ENDSTOPS
Y_STEP_LOSS_ASSERT_ENDSTOP PROFILE=accel_2500 VELOCITY=350 ACCEL=2500 SCV=5 CYCLE=3 STEP=3
; Check 4/90: profile=accel_2500 velocity=350 accel=2500 scv=5 cycle=4
SET_VELOCITY_LIMIT VELOCITY=350 ACCEL=1000 SQUARE_CORNER_VELOCITY=5
G1 X59.860 Y84.042 Z10.000 F21000
M400
SET_VELOCITY_LIMIT VELOCITY=350 ACCEL=2500 SQUARE_CORNER_VELOCITY=5
G1 X59.860 Y84.936 F21000
G1 X70.528 Y83.183 F21000
G1 X70.528 Y66.936 F21000
G1 X100.985 Y-9.800 F21000
G1 X100.025 Y-9.800 F21000
G1 X100.025 Y-8.908 F21000
M400
SET_VELOCITY_LIMIT VELOCITY=20 ACCEL=500 SQUARE_CORNER_VELOCITY=5
G1 X100.025 Y-14.800 F1200
M400
G4 P100
QUERY_ENDSTOPS
Y_STEP_LOSS_ASSERT_ENDSTOP PROFILE=accel_2500 VELOCITY=350 ACCEL=2500 SCV=5 CYCLE=4 STEP=4
; Check 5/90: profile=accel_2500 velocity=350 accel=2500 scv=5 cycle=5
SET_VELOCITY_LIMIT VELOCITY=350 ACCEL=1000 SQUARE_CORNER_VELOCITY=5
G1 X59.860 Y84.042 Z10.000 F21000
M400
SET_VELOCITY_LIMIT VELOCITY=350 ACCEL=2500 SQUARE_CORNER_VELOCITY=5
G1 X59.860 Y84.936 F21000
G1 X70.528 Y83.183 F21000
G1 X70.528 Y66.936 F21000
G1 X100.985 Y-9.800 F21000
G1 X100.025 Y-9.800 F21000
G1 X100.025 Y-8.908 F21000
M400
SET_VELOCITY_LIMIT VELOCITY=20 ACCEL=500 SQUARE_CORNER_VELOCITY=5
G1 X100.025 Y-14.800 F1200
M400
G4 P100
QUERY_ENDSTOPS
Y_STEP_LOSS_ASSERT_ENDSTOP PROFILE=accel_2500 VELOCITY=350 ACCEL=2500 SCV=5 CYCLE=5 STEP=5
; Check 6/90: profile=accel_2500 velocity=350 accel=2500 scv=5 cycle=6
SET_VELOCITY_LIMIT VELOCITY=350 ACCEL=1000 SQUARE_CORNER_VELOCITY=5
G1 X59.860 Y84.042 Z10.000 F21000
M400
SET_VELOCITY_LIMIT VELOCITY=350 ACCEL=2500 SQUARE_CORNER_VELOCITY=5
G1 X59.860 Y84.936 F21000
G1 X70.528 Y83.183 F21000
G1 X70.528 Y66.936 F21000
G1 X100.985 Y-9.800 F21000
G1 X100.025 Y-9.800 F21000
G1 X100.025 Y-8.908 F21000
M400
SET_VELOCITY_LIMIT VELOCITY=20 ACCEL=500 SQUARE_CORNER_VELOCITY=5
G1 X100.025 Y-14.800 F1200
M400
G4 P100
QUERY_ENDSTOPS
Y_STEP_LOSS_ASSERT_ENDSTOP PROFILE=accel_2500 VELOCITY=350 ACCEL=2500 SCV=5 CYCLE=6 STEP=6
; Check 7/90: profile=accel_2500 velocity=350 accel=2500 scv=5 cycle=7
SET_VELOCITY_LIMIT VELOCITY=350 ACCEL=1000 SQUARE_CORNER_VELOCITY=5
G1 X59.860 Y84.042 Z10.000 F21000
M400
SET_VELOCITY_LIMIT VELOCITY=350 ACCEL=2500 SQUARE_CORNER_VELOCITY=5
G1 X59.860 Y84.936 F21000
G1 X70.528 Y83.183 F21000
G1 X70.528 Y66.936 F21000
G1 X100.985 Y-9.800 F21000
G1 X100.025 Y-9.800 F21000
G1 X100.025 Y-8.908 F21000
M400
SET_VELOCITY_LIMIT VELOCITY=20 ACCEL=500 SQUARE_CORNER_VELOCITY=5
G1 X100.025 Y-14.800 F1200
M400
G4 P100
QUERY_ENDSTOPS
Y_STEP_LOSS_ASSERT_ENDSTOP PROFILE=accel_2500 VELOCITY=350 ACCEL=2500 SCV=5 CYCLE=7 STEP=7
; Check 8/90: profile=accel_2500 velocity=350 accel=2500 scv=5 cycle=8
SET_VELOCITY_LIMIT VELOCITY=350 ACCEL=1000 SQUARE_CORNER_VELOCITY=5
G1 X59.860 Y84.042 Z10.000 F21000
M400
SET_VELOCITY_LIMIT VELOCITY=350 ACCEL=2500 SQUARE_CORNER_VELOCITY=5
G1 X59.860 Y84.936 F21000
G1 X70.528 Y83.183 F21000
G1 X70.528 Y66.936 F21000
G1 X100.985 Y-9.800 F21000
G1 X100.025 Y-9.800 F21000
G1 X100.025 Y-8.908 F21000
M400
SET_VELOCITY_LIMIT VELOCITY=20 ACCEL=500 SQUARE_CORNER_VELOCITY=5
G1 X100.025 Y-14.800 F1200
M400
G4 P100
QUERY_ENDSTOPS
Y_STEP_LOSS_ASSERT_ENDSTOP PROFILE=accel_2500 VELOCITY=350 ACCEL=2500 SCV=5 CYCLE=8 STEP=8
; Check 9/90: profile=accel_2500 velocity=350 accel=2500 scv=5 cycle=9
SET_VELOCITY_LIMIT VELOCITY=350 ACCEL=1000 SQUARE_CORNER_VELOCITY=5
G1 X59.860 Y84.042 Z10.000 F21000
M400
SET_VELOCITY_LIMIT VELOCITY=350 ACCEL=2500 SQUARE_CORNER_VELOCITY=5
G1 X59.860 Y84.936 F21000
G1 X70.528 Y83.183 F21000
G1 X70.528 Y66.936 F21000
G1 X100.985 Y-9.800 F21000
G1 X100.025 Y-9.800 F21000
G1 X100.025 Y-8.908 F21000
M400
SET_VELOCITY_LIMIT VELOCITY=20 ACCEL=500 SQUARE_CORNER_VELOCITY=5
G1 X100.025 Y-14.800 F1200
M400
G4 P100
QUERY_ENDSTOPS
Y_STEP_LOSS_ASSERT_ENDSTOP PROFILE=accel_2500 VELOCITY=350 ACCEL=2500 SCV=5 CYCLE=9 STEP=9
; Check 10/90: profile=accel_2500 velocity=350 accel=2500 scv=5 cycle=10
SET_VELOCITY_LIMIT VELOCITY=350 ACCEL=1000 SQUARE_CORNER_VELOCITY=5
G1 X59.860 Y84.042 Z10.000 F21000
M400
SET_VELOCITY_LIMIT VELOCITY=350 ACCEL=2500 SQUARE_CORNER_VELOCITY=5
G1 X59.860 Y84.936 F21000
G1 X70.528 Y83.183 F21000
G1 X70.528 Y66.936 F21000
G1 X100.985 Y-9.800 F21000
G1 X100.025 Y-9.800 F21000
G1 X100.025 Y-8.908 F21000
M400
SET_VELOCITY_LIMIT VELOCITY=20 ACCEL=500 SQUARE_CORNER_VELOCITY=5
G1 X100.025 Y-14.800 F1200
M400
G4 P100
QUERY_ENDSTOPS
Y_STEP_LOSS_ASSERT_ENDSTOP PROFILE=accel_2500 VELOCITY=350 ACCEL=2500 SCV=5 CYCLE=10 STEP=10
RESPOND TYPE=echo MSG="Y print-motif profile accel_3500: velocity 350 mm/s, accel 3500 mm/s^2, SCV 5, 10 cycles."
; Check 11/90: profile=accel_3500 velocity=350 accel=3500 scv=5 cycle=1
SET_VELOCITY_LIMIT VELOCITY=350 ACCEL=1000 SQUARE_CORNER_VELOCITY=5
G1 X59.860 Y84.042 Z10.000 F21000
M400
SET_VELOCITY_LIMIT VELOCITY=350 ACCEL=3500 SQUARE_CORNER_VELOCITY=5
G1 X59.860 Y84.936 F21000
G1 X70.528 Y83.183 F21000
G1 X70.528 Y66.936 F21000
G1 X100.985 Y-9.800 F21000
G1 X100.025 Y-9.800 F21000
G1 X100.025 Y-8.908 F21000
M400
SET_VELOCITY_LIMIT VELOCITY=20 ACCEL=500 SQUARE_CORNER_VELOCITY=5
G1 X100.025 Y-14.800 F1200
M400
G4 P100
QUERY_ENDSTOPS
Y_STEP_LOSS_ASSERT_ENDSTOP PROFILE=accel_3500 VELOCITY=350 ACCEL=3500 SCV=5 CYCLE=1 STEP=11
; Check 12/90: profile=accel_3500 velocity=350 accel=3500 scv=5 cycle=2
SET_VELOCITY_LIMIT VELOCITY=350 ACCEL=1000 SQUARE_CORNER_VELOCITY=5
G1 X59.860 Y84.042 Z10.000 F21000
M400
SET_VELOCITY_LIMIT VELOCITY=350 ACCEL=3500 SQUARE_CORNER_VELOCITY=5
G1 X59.860 Y84.936 F21000
G1 X70.528 Y83.183 F21000
G1 X70.528 Y66.936 F21000
G1 X100.985 Y-9.800 F21000
G1 X100.025 Y-9.800 F21000
G1 X100.025 Y-8.908 F21000
M400
SET_VELOCITY_LIMIT VELOCITY=20 ACCEL=500 SQUARE_CORNER_VELOCITY=5
G1 X100.025 Y-14.800 F1200
M400
G4 P100
QUERY_ENDSTOPS
Y_STEP_LOSS_ASSERT_ENDSTOP PROFILE=accel_3500 VELOCITY=350 ACCEL=3500 SCV=5 CYCLE=2 STEP=12
; Check 13/90: profile=accel_3500 velocity=350 accel=3500 scv=5 cycle=3
SET_VELOCITY_LIMIT VELOCITY=350 ACCEL=1000 SQUARE_CORNER_VELOCITY=5
G1 X59.860 Y84.042 Z10.000 F21000
M400
SET_VELOCITY_LIMIT VELOCITY=350 ACCEL=3500 SQUARE_CORNER_VELOCITY=5
G1 X59.860 Y84.936 F21000
G1 X70.528 Y83.183 F21000
G1 X70.528 Y66.936 F21000
G1 X100.985 Y-9.800 F21000
G1 X100.025 Y-9.800 F21000
G1 X100.025 Y-8.908 F21000
M400
SET_VELOCITY_LIMIT VELOCITY=20 ACCEL=500 SQUARE_CORNER_VELOCITY=5
G1 X100.025 Y-14.800 F1200
M400
G4 P100
QUERY_ENDSTOPS
Y_STEP_LOSS_ASSERT_ENDSTOP PROFILE=accel_3500 VELOCITY=350 ACCEL=3500 SCV=5 CYCLE=3 STEP=13
; Check 14/90: profile=accel_3500 velocity=350 accel=3500 scv=5 cycle=4
SET_VELOCITY_LIMIT VELOCITY=350 ACCEL=1000 SQUARE_CORNER_VELOCITY=5
G1 X59.860 Y84.042 Z10.000 F21000
M400
SET_VELOCITY_LIMIT VELOCITY=350 ACCEL=3500 SQUARE_CORNER_VELOCITY=5
G1 X59.860 Y84.936 F21000
G1 X70.528 Y83.183 F21000
G1 X70.528 Y66.936 F21000
G1 X100.985 Y-9.800 F21000
G1 X100.025 Y-9.800 F21000
G1 X100.025 Y-8.908 F21000
M400
SET_VELOCITY_LIMIT VELOCITY=20 ACCEL=500 SQUARE_CORNER_VELOCITY=5
G1 X100.025 Y-14.800 F1200
M400
G4 P100
QUERY_ENDSTOPS
Y_STEP_LOSS_ASSERT_ENDSTOP PROFILE=accel_3500 VELOCITY=350 ACCEL=3500 SCV=5 CYCLE=4 STEP=14
; Check 15/90: profile=accel_3500 velocity=350 accel=3500 scv=5 cycle=5
SET_VELOCITY_LIMIT VELOCITY=350 ACCEL=1000 SQUARE_CORNER_VELOCITY=5
G1 X59.860 Y84.042 Z10.000 F21000
M400
SET_VELOCITY_LIMIT VELOCITY=350 ACCEL=3500 SQUARE_CORNER_VELOCITY=5
G1 X59.860 Y84.936 F21000
G1 X70.528 Y83.183 F21000
G1 X70.528 Y66.936 F21000
G1 X100.985 Y-9.800 F21000
G1 X100.025 Y-9.800 F21000
G1 X100.025 Y-8.908 F21000
M400
SET_VELOCITY_LIMIT VELOCITY=20 ACCEL=500 SQUARE_CORNER_VELOCITY=5
G1 X100.025 Y-14.800 F1200
M400
G4 P100
QUERY_ENDSTOPS
Y_STEP_LOSS_ASSERT_ENDSTOP PROFILE=accel_3500 VELOCITY=350 ACCEL=3500 SCV=5 CYCLE=5 STEP=15
; Check 16/90: profile=accel_3500 velocity=350 accel=3500 scv=5 cycle=6
SET_VELOCITY_LIMIT VELOCITY=350 ACCEL=1000 SQUARE_CORNER_VELOCITY=5
G1 X59.860 Y84.042 Z10.000 F21000
M400
SET_VELOCITY_LIMIT VELOCITY=350 ACCEL=3500 SQUARE_CORNER_VELOCITY=5
G1 X59.860 Y84.936 F21000
G1 X70.528 Y83.183 F21000
G1 X70.528 Y66.936 F21000
G1 X100.985 Y-9.800 F21000
G1 X100.025 Y-9.800 F21000
G1 X100.025 Y-8.908 F21000
M400
SET_VELOCITY_LIMIT VELOCITY=20 ACCEL=500 SQUARE_CORNER_VELOCITY=5
G1 X100.025 Y-14.800 F1200
M400
G4 P100
QUERY_ENDSTOPS
Y_STEP_LOSS_ASSERT_ENDSTOP PROFILE=accel_3500 VELOCITY=350 ACCEL=3500 SCV=5 CYCLE=6 STEP=16
; Check 17/90: profile=accel_3500 velocity=350 accel=3500 scv=5 cycle=7
SET_VELOCITY_LIMIT VELOCITY=350 ACCEL=1000 SQUARE_CORNER_VELOCITY=5
G1 X59.860 Y84.042 Z10.000 F21000
M400
SET_VELOCITY_LIMIT VELOCITY=350 ACCEL=3500 SQUARE_CORNER_VELOCITY=5
G1 X59.860 Y84.936 F21000
G1 X70.528 Y83.183 F21000
G1 X70.528 Y66.936 F21000
G1 X100.985 Y-9.800 F21000
G1 X100.025 Y-9.800 F21000
G1 X100.025 Y-8.908 F21000
M400
SET_VELOCITY_LIMIT VELOCITY=20 ACCEL=500 SQUARE_CORNER_VELOCITY=5
G1 X100.025 Y-14.800 F1200
M400
G4 P100
QUERY_ENDSTOPS
Y_STEP_LOSS_ASSERT_ENDSTOP PROFILE=accel_3500 VELOCITY=350 ACCEL=3500 SCV=5 CYCLE=7 STEP=17
; Check 18/90: profile=accel_3500 velocity=350 accel=3500 scv=5 cycle=8
SET_VELOCITY_LIMIT VELOCITY=350 ACCEL=1000 SQUARE_CORNER_VELOCITY=5
G1 X59.860 Y84.042 Z10.000 F21000
M400
SET_VELOCITY_LIMIT VELOCITY=350 ACCEL=3500 SQUARE_CORNER_VELOCITY=5
G1 X59.860 Y84.936 F21000
G1 X70.528 Y83.183 F21000
G1 X70.528 Y66.936 F21000
G1 X100.985 Y-9.800 F21000
G1 X100.025 Y-9.800 F21000
G1 X100.025 Y-8.908 F21000
M400
SET_VELOCITY_LIMIT VELOCITY=20 ACCEL=500 SQUARE_CORNER_VELOCITY=5
G1 X100.025 Y-14.800 F1200
M400
G4 P100
QUERY_ENDSTOPS
Y_STEP_LOSS_ASSERT_ENDSTOP PROFILE=accel_3500 VELOCITY=350 ACCEL=3500 SCV=5 CYCLE=8 STEP=18
; Check 19/90: profile=accel_3500 velocity=350 accel=3500 scv=5 cycle=9
SET_VELOCITY_LIMIT VELOCITY=350 ACCEL=1000 SQUARE_CORNER_VELOCITY=5
G1 X59.860 Y84.042 Z10.000 F21000
M400
SET_VELOCITY_LIMIT VELOCITY=350 ACCEL=3500 SQUARE_CORNER_VELOCITY=5
G1 X59.860 Y84.936 F21000
G1 X70.528 Y83.183 F21000
G1 X70.528 Y66.936 F21000
G1 X100.985 Y-9.800 F21000
G1 X100.025 Y-9.800 F21000
G1 X100.025 Y-8.908 F21000
M400
SET_VELOCITY_LIMIT VELOCITY=20 ACCEL=500 SQUARE_CORNER_VELOCITY=5
G1 X100.025 Y-14.800 F1200
M400
G4 P100
QUERY_ENDSTOPS
Y_STEP_LOSS_ASSERT_ENDSTOP PROFILE=accel_3500 VELOCITY=350 ACCEL=3500 SCV=5 CYCLE=9 STEP=19
; Check 20/90: profile=accel_3500 velocity=350 accel=3500 scv=5 cycle=10
SET_VELOCITY_LIMIT VELOCITY=350 ACCEL=1000 SQUARE_CORNER_VELOCITY=5
G1 X59.860 Y84.042 Z10.000 F21000
M400
SET_VELOCITY_LIMIT VELOCITY=350 ACCEL=3500 SQUARE_CORNER_VELOCITY=5
G1 X59.860 Y84.936 F21000
G1 X70.528 Y83.183 F21000
G1 X70.528 Y66.936 F21000
G1 X100.985 Y-9.800 F21000
G1 X100.025 Y-9.800 F21000
G1 X100.025 Y-8.908 F21000
M400
SET_VELOCITY_LIMIT VELOCITY=20 ACCEL=500 SQUARE_CORNER_VELOCITY=5
G1 X100.025 Y-14.800 F1200
M400
G4 P100
QUERY_ENDSTOPS
Y_STEP_LOSS_ASSERT_ENDSTOP PROFILE=accel_3500 VELOCITY=350 ACCEL=3500 SCV=5 CYCLE=10 STEP=20
RESPOND TYPE=echo MSG="Y print-motif profile accel_4500: velocity 350 mm/s, accel 4500 mm/s^2, SCV 5, 10 cycles."
; Check 21/90: profile=accel_4500 velocity=350 accel=4500 scv=5 cycle=1
SET_VELOCITY_LIMIT VELOCITY=350 ACCEL=1000 SQUARE_CORNER_VELOCITY=5
G1 X59.860 Y84.042 Z10.000 F21000
M400
SET_VELOCITY_LIMIT VELOCITY=350 ACCEL=4500 SQUARE_CORNER_VELOCITY=5
G1 X59.860 Y84.936 F21000
G1 X70.528 Y83.183 F21000
G1 X70.528 Y66.936 F21000
G1 X100.985 Y-9.800 F21000
G1 X100.025 Y-9.800 F21000
G1 X100.025 Y-8.908 F21000
M400
SET_VELOCITY_LIMIT VELOCITY=20 ACCEL=500 SQUARE_CORNER_VELOCITY=5
G1 X100.025 Y-14.800 F1200
M400
G4 P100
QUERY_ENDSTOPS
Y_STEP_LOSS_ASSERT_ENDSTOP PROFILE=accel_4500 VELOCITY=350 ACCEL=4500 SCV=5 CYCLE=1 STEP=21
; Check 22/90: profile=accel_4500 velocity=350 accel=4500 scv=5 cycle=2
SET_VELOCITY_LIMIT VELOCITY=350 ACCEL=1000 SQUARE_CORNER_VELOCITY=5
G1 X59.860 Y84.042 Z10.000 F21000
M400
SET_VELOCITY_LIMIT VELOCITY=350 ACCEL=4500 SQUARE_CORNER_VELOCITY=5
G1 X59.860 Y84.936 F21000
G1 X70.528 Y83.183 F21000
G1 X70.528 Y66.936 F21000
G1 X100.985 Y-9.800 F21000
G1 X100.025 Y-9.800 F21000
G1 X100.025 Y-8.908 F21000
M400
SET_VELOCITY_LIMIT VELOCITY=20 ACCEL=500 SQUARE_CORNER_VELOCITY=5
G1 X100.025 Y-14.800 F1200
M400
G4 P100
QUERY_ENDSTOPS
Y_STEP_LOSS_ASSERT_ENDSTOP PROFILE=accel_4500 VELOCITY=350 ACCEL=4500 SCV=5 CYCLE=2 STEP=22
; Check 23/90: profile=accel_4500 velocity=350 accel=4500 scv=5 cycle=3
SET_VELOCITY_LIMIT VELOCITY=350 ACCEL=1000 SQUARE_CORNER_VELOCITY=5
G1 X59.860 Y84.042 Z10.000 F21000
M400
SET_VELOCITY_LIMIT VELOCITY=350 ACCEL=4500 SQUARE_CORNER_VELOCITY=5
G1 X59.860 Y84.936 F21000
G1 X70.528 Y83.183 F21000
G1 X70.528 Y66.936 F21000
G1 X100.985 Y-9.800 F21000
G1 X100.025 Y-9.800 F21000
G1 X100.025 Y-8.908 F21000
M400
SET_VELOCITY_LIMIT VELOCITY=20 ACCEL=500 SQUARE_CORNER_VELOCITY=5
G1 X100.025 Y-14.800 F1200
M400
G4 P100
QUERY_ENDSTOPS
Y_STEP_LOSS_ASSERT_ENDSTOP PROFILE=accel_4500 VELOCITY=350 ACCEL=4500 SCV=5 CYCLE=3 STEP=23
; Check 24/90: profile=accel_4500 velocity=350 accel=4500 scv=5 cycle=4
SET_VELOCITY_LIMIT VELOCITY=350 ACCEL=1000 SQUARE_CORNER_VELOCITY=5
G1 X59.860 Y84.042 Z10.000 F21000
M400
SET_VELOCITY_LIMIT VELOCITY=350 ACCEL=4500 SQUARE_CORNER_VELOCITY=5
G1 X59.860 Y84.936 F21000
G1 X70.528 Y83.183 F21000
G1 X70.528 Y66.936 F21000
G1 X100.985 Y-9.800 F21000
G1 X100.025 Y-9.800 F21000
G1 X100.025 Y-8.908 F21000
M400
SET_VELOCITY_LIMIT VELOCITY=20 ACCEL=500 SQUARE_CORNER_VELOCITY=5
G1 X100.025 Y-14.800 F1200
M400
G4 P100
QUERY_ENDSTOPS
Y_STEP_LOSS_ASSERT_ENDSTOP PROFILE=accel_4500 VELOCITY=350 ACCEL=4500 SCV=5 CYCLE=4 STEP=24
; Check 25/90: profile=accel_4500 velocity=350 accel=4500 scv=5 cycle=5
SET_VELOCITY_LIMIT VELOCITY=350 ACCEL=1000 SQUARE_CORNER_VELOCITY=5
G1 X59.860 Y84.042 Z10.000 F21000
M400
SET_VELOCITY_LIMIT VELOCITY=350 ACCEL=4500 SQUARE_CORNER_VELOCITY=5
G1 X59.860 Y84.936 F21000
G1 X70.528 Y83.183 F21000
G1 X70.528 Y66.936 F21000
G1 X100.985 Y-9.800 F21000
G1 X100.025 Y-9.800 F21000
G1 X100.025 Y-8.908 F21000
M400
SET_VELOCITY_LIMIT VELOCITY=20 ACCEL=500 SQUARE_CORNER_VELOCITY=5
G1 X100.025 Y-14.800 F1200
M400
G4 P100
QUERY_ENDSTOPS
Y_STEP_LOSS_ASSERT_ENDSTOP PROFILE=accel_4500 VELOCITY=350 ACCEL=4500 SCV=5 CYCLE=5 STEP=25
; Check 26/90: profile=accel_4500 velocity=350 accel=4500 scv=5 cycle=6
SET_VELOCITY_LIMIT VELOCITY=350 ACCEL=1000 SQUARE_CORNER_VELOCITY=5
G1 X59.860 Y84.042 Z10.000 F21000
M400
SET_VELOCITY_LIMIT VELOCITY=350 ACCEL=4500 SQUARE_CORNER_VELOCITY=5
G1 X59.860 Y84.936 F21000
G1 X70.528 Y83.183 F21000
G1 X70.528 Y66.936 F21000
G1 X100.985 Y-9.800 F21000
G1 X100.025 Y-9.800 F21000
G1 X100.025 Y-8.908 F21000
M400
SET_VELOCITY_LIMIT VELOCITY=20 ACCEL=500 SQUARE_CORNER_VELOCITY=5
G1 X100.025 Y-14.800 F1200
M400
G4 P100
QUERY_ENDSTOPS
Y_STEP_LOSS_ASSERT_ENDSTOP PROFILE=accel_4500 VELOCITY=350 ACCEL=4500 SCV=5 CYCLE=6 STEP=26
; Check 27/90: profile=accel_4500 velocity=350 accel=4500 scv=5 cycle=7
SET_VELOCITY_LIMIT VELOCITY=350 ACCEL=1000 SQUARE_CORNER_VELOCITY=5
G1 X59.860 Y84.042 Z10.000 F21000
M400
SET_VELOCITY_LIMIT VELOCITY=350 ACCEL=4500 SQUARE_CORNER_VELOCITY=5
G1 X59.860 Y84.936 F21000
G1 X70.528 Y83.183 F21000
G1 X70.528 Y66.936 F21000
G1 X100.985 Y-9.800 F21000
G1 X100.025 Y-9.800 F21000
G1 X100.025 Y-8.908 F21000
M400
SET_VELOCITY_LIMIT VELOCITY=20 ACCEL=500 SQUARE_CORNER_VELOCITY=5
G1 X100.025 Y-14.800 F1200
M400
G4 P100
QUERY_ENDSTOPS
Y_STEP_LOSS_ASSERT_ENDSTOP PROFILE=accel_4500 VELOCITY=350 ACCEL=4500 SCV=5 CYCLE=7 STEP=27
; Check 28/90: profile=accel_4500 velocity=350 accel=4500 scv=5 cycle=8
SET_VELOCITY_LIMIT VELOCITY=350 ACCEL=1000 SQUARE_CORNER_VELOCITY=5
G1 X59.860 Y84.042 Z10.000 F21000
M400
SET_VELOCITY_LIMIT VELOCITY=350 ACCEL=4500 SQUARE_CORNER_VELOCITY=5
G1 X59.860 Y84.936 F21000
G1 X70.528 Y83.183 F21000
G1 X70.528 Y66.936 F21000
G1 X100.985 Y-9.800 F21000
G1 X100.025 Y-9.800 F21000
G1 X100.025 Y-8.908 F21000
M400
SET_VELOCITY_LIMIT VELOCITY=20 ACCEL=500 SQUARE_CORNER_VELOCITY=5
G1 X100.025 Y-14.800 F1200
M400
G4 P100
QUERY_ENDSTOPS
Y_STEP_LOSS_ASSERT_ENDSTOP PROFILE=accel_4500 VELOCITY=350 ACCEL=4500 SCV=5 CYCLE=8 STEP=28
; Check 29/90: profile=accel_4500 velocity=350 accel=4500 scv=5 cycle=9
SET_VELOCITY_LIMIT VELOCITY=350 ACCEL=1000 SQUARE_CORNER_VELOCITY=5
G1 X59.860 Y84.042 Z10.000 F21000
M400
SET_VELOCITY_LIMIT VELOCITY=350 ACCEL=4500 SQUARE_CORNER_VELOCITY=5
G1 X59.860 Y84.936 F21000
G1 X70.528 Y83.183 F21000
G1 X70.528 Y66.936 F21000
G1 X100.985 Y-9.800 F21000
G1 X100.025 Y-9.800 F21000
G1 X100.025 Y-8.908 F21000
M400
SET_VELOCITY_LIMIT VELOCITY=20 ACCEL=500 SQUARE_CORNER_VELOCITY=5
G1 X100.025 Y-14.800 F1200
M400
G4 P100
QUERY_ENDSTOPS
Y_STEP_LOSS_ASSERT_ENDSTOP PROFILE=accel_4500 VELOCITY=350 ACCEL=4500 SCV=5 CYCLE=9 STEP=29
; Check 30/90: profile=accel_4500 velocity=350 accel=4500 scv=5 cycle=10
SET_VELOCITY_LIMIT VELOCITY=350 ACCEL=1000 SQUARE_CORNER_VELOCITY=5
G1 X59.860 Y84.042 Z10.000 F21000
M400
SET_VELOCITY_LIMIT VELOCITY=350 ACCEL=4500 SQUARE_CORNER_VELOCITY=5
G1 X59.860 Y84.936 F21000
G1 X70.528 Y83.183 F21000
G1 X70.528 Y66.936 F21000
G1 X100.985 Y-9.800 F21000
G1 X100.025 Y-9.800 F21000
G1 X100.025 Y-8.908 F21000
M400
SET_VELOCITY_LIMIT VELOCITY=20 ACCEL=500 SQUARE_CORNER_VELOCITY=5
G1 X100.025 Y-14.800 F1200
M400
G4 P100
QUERY_ENDSTOPS
Y_STEP_LOSS_ASSERT_ENDSTOP PROFILE=accel_4500 VELOCITY=350 ACCEL=4500 SCV=5 CYCLE=10 STEP=30
RESPOND TYPE=echo MSG="Y print-motif profile speed_300: velocity 300 mm/s, accel 3500 mm/s^2, SCV 5, 10 cycles."
; Check 31/90: profile=speed_300 velocity=300 accel=3500 scv=5 cycle=1
SET_VELOCITY_LIMIT VELOCITY=350 ACCEL=1000 SQUARE_CORNER_VELOCITY=5
G1 X59.860 Y84.042 Z10.000 F21000
M400
SET_VELOCITY_LIMIT VELOCITY=300 ACCEL=3500 SQUARE_CORNER_VELOCITY=5
G1 X59.860 Y84.936 F18000
G1 X70.528 Y83.183 F18000
G1 X70.528 Y66.936 F18000
G1 X100.985 Y-9.800 F18000
G1 X100.025 Y-9.800 F18000
G1 X100.025 Y-8.908 F18000
M400
SET_VELOCITY_LIMIT VELOCITY=20 ACCEL=500 SQUARE_CORNER_VELOCITY=5
G1 X100.025 Y-14.800 F1200
M400
G4 P100
QUERY_ENDSTOPS
Y_STEP_LOSS_ASSERT_ENDSTOP PROFILE=speed_300 VELOCITY=300 ACCEL=3500 SCV=5 CYCLE=1 STEP=31
; Check 32/90: profile=speed_300 velocity=300 accel=3500 scv=5 cycle=2
SET_VELOCITY_LIMIT VELOCITY=350 ACCEL=1000 SQUARE_CORNER_VELOCITY=5
G1 X59.860 Y84.042 Z10.000 F21000
M400
SET_VELOCITY_LIMIT VELOCITY=300 ACCEL=3500 SQUARE_CORNER_VELOCITY=5
G1 X59.860 Y84.936 F18000
G1 X70.528 Y83.183 F18000
G1 X70.528 Y66.936 F18000
G1 X100.985 Y-9.800 F18000
G1 X100.025 Y-9.800 F18000
G1 X100.025 Y-8.908 F18000
M400
SET_VELOCITY_LIMIT VELOCITY=20 ACCEL=500 SQUARE_CORNER_VELOCITY=5
G1 X100.025 Y-14.800 F1200
M400
G4 P100
QUERY_ENDSTOPS
Y_STEP_LOSS_ASSERT_ENDSTOP PROFILE=speed_300 VELOCITY=300 ACCEL=3500 SCV=5 CYCLE=2 STEP=32
; Check 33/90: profile=speed_300 velocity=300 accel=3500 scv=5 cycle=3
SET_VELOCITY_LIMIT VELOCITY=350 ACCEL=1000 SQUARE_CORNER_VELOCITY=5
G1 X59.860 Y84.042 Z10.000 F21000
M400
SET_VELOCITY_LIMIT VELOCITY=300 ACCEL=3500 SQUARE_CORNER_VELOCITY=5
G1 X59.860 Y84.936 F18000
G1 X70.528 Y83.183 F18000
G1 X70.528 Y66.936 F18000
G1 X100.985 Y-9.800 F18000
G1 X100.025 Y-9.800 F18000
G1 X100.025 Y-8.908 F18000
M400
SET_VELOCITY_LIMIT VELOCITY=20 ACCEL=500 SQUARE_CORNER_VELOCITY=5
G1 X100.025 Y-14.800 F1200
M400
G4 P100
QUERY_ENDSTOPS
Y_STEP_LOSS_ASSERT_ENDSTOP PROFILE=speed_300 VELOCITY=300 ACCEL=3500 SCV=5 CYCLE=3 STEP=33
; Check 34/90: profile=speed_300 velocity=300 accel=3500 scv=5 cycle=4
SET_VELOCITY_LIMIT VELOCITY=350 ACCEL=1000 SQUARE_CORNER_VELOCITY=5
G1 X59.860 Y84.042 Z10.000 F21000
M400
SET_VELOCITY_LIMIT VELOCITY=300 ACCEL=3500 SQUARE_CORNER_VELOCITY=5
G1 X59.860 Y84.936 F18000
G1 X70.528 Y83.183 F18000
G1 X70.528 Y66.936 F18000
G1 X100.985 Y-9.800 F18000
G1 X100.025 Y-9.800 F18000
G1 X100.025 Y-8.908 F18000
M400
SET_VELOCITY_LIMIT VELOCITY=20 ACCEL=500 SQUARE_CORNER_VELOCITY=5
G1 X100.025 Y-14.800 F1200
M400
G4 P100
QUERY_ENDSTOPS
Y_STEP_LOSS_ASSERT_ENDSTOP PROFILE=speed_300 VELOCITY=300 ACCEL=3500 SCV=5 CYCLE=4 STEP=34
; Check 35/90: profile=speed_300 velocity=300 accel=3500 scv=5 cycle=5
SET_VELOCITY_LIMIT VELOCITY=350 ACCEL=1000 SQUARE_CORNER_VELOCITY=5
G1 X59.860 Y84.042 Z10.000 F21000
M400
SET_VELOCITY_LIMIT VELOCITY=300 ACCEL=3500 SQUARE_CORNER_VELOCITY=5
G1 X59.860 Y84.936 F18000
G1 X70.528 Y83.183 F18000
G1 X70.528 Y66.936 F18000
G1 X100.985 Y-9.800 F18000
G1 X100.025 Y-9.800 F18000
G1 X100.025 Y-8.908 F18000
M400
SET_VELOCITY_LIMIT VELOCITY=20 ACCEL=500 SQUARE_CORNER_VELOCITY=5
G1 X100.025 Y-14.800 F1200
M400
G4 P100
QUERY_ENDSTOPS
Y_STEP_LOSS_ASSERT_ENDSTOP PROFILE=speed_300 VELOCITY=300 ACCEL=3500 SCV=5 CYCLE=5 STEP=35
; Check 36/90: profile=speed_300 velocity=300 accel=3500 scv=5 cycle=6
SET_VELOCITY_LIMIT VELOCITY=350 ACCEL=1000 SQUARE_CORNER_VELOCITY=5
G1 X59.860 Y84.042 Z10.000 F21000
M400
SET_VELOCITY_LIMIT VELOCITY=300 ACCEL=3500 SQUARE_CORNER_VELOCITY=5
G1 X59.860 Y84.936 F18000
G1 X70.528 Y83.183 F18000
G1 X70.528 Y66.936 F18000
G1 X100.985 Y-9.800 F18000
G1 X100.025 Y-9.800 F18000
G1 X100.025 Y-8.908 F18000
M400
SET_VELOCITY_LIMIT VELOCITY=20 ACCEL=500 SQUARE_CORNER_VELOCITY=5
G1 X100.025 Y-14.800 F1200
M400
G4 P100
QUERY_ENDSTOPS
Y_STEP_LOSS_ASSERT_ENDSTOP PROFILE=speed_300 VELOCITY=300 ACCEL=3500 SCV=5 CYCLE=6 STEP=36
; Check 37/90: profile=speed_300 velocity=300 accel=3500 scv=5 cycle=7
SET_VELOCITY_LIMIT VELOCITY=350 ACCEL=1000 SQUARE_CORNER_VELOCITY=5
G1 X59.860 Y84.042 Z10.000 F21000
M400
SET_VELOCITY_LIMIT VELOCITY=300 ACCEL=3500 SQUARE_CORNER_VELOCITY=5
G1 X59.860 Y84.936 F18000
G1 X70.528 Y83.183 F18000
G1 X70.528 Y66.936 F18000
G1 X100.985 Y-9.800 F18000
G1 X100.025 Y-9.800 F18000
G1 X100.025 Y-8.908 F18000
M400
SET_VELOCITY_LIMIT VELOCITY=20 ACCEL=500 SQUARE_CORNER_VELOCITY=5
G1 X100.025 Y-14.800 F1200
M400
G4 P100
QUERY_ENDSTOPS
Y_STEP_LOSS_ASSERT_ENDSTOP PROFILE=speed_300 VELOCITY=300 ACCEL=3500 SCV=5 CYCLE=7 STEP=37
; Check 38/90: profile=speed_300 velocity=300 accel=3500 scv=5 cycle=8
SET_VELOCITY_LIMIT VELOCITY=350 ACCEL=1000 SQUARE_CORNER_VELOCITY=5
G1 X59.860 Y84.042 Z10.000 F21000
M400
SET_VELOCITY_LIMIT VELOCITY=300 ACCEL=3500 SQUARE_CORNER_VELOCITY=5
G1 X59.860 Y84.936 F18000
G1 X70.528 Y83.183 F18000
G1 X70.528 Y66.936 F18000
G1 X100.985 Y-9.800 F18000
G1 X100.025 Y-9.800 F18000
G1 X100.025 Y-8.908 F18000
M400
SET_VELOCITY_LIMIT VELOCITY=20 ACCEL=500 SQUARE_CORNER_VELOCITY=5
G1 X100.025 Y-14.800 F1200
M400
G4 P100
QUERY_ENDSTOPS
Y_STEP_LOSS_ASSERT_ENDSTOP PROFILE=speed_300 VELOCITY=300 ACCEL=3500 SCV=5 CYCLE=8 STEP=38
; Check 39/90: profile=speed_300 velocity=300 accel=3500 scv=5 cycle=9
SET_VELOCITY_LIMIT VELOCITY=350 ACCEL=1000 SQUARE_CORNER_VELOCITY=5
G1 X59.860 Y84.042 Z10.000 F21000
M400
SET_VELOCITY_LIMIT VELOCITY=300 ACCEL=3500 SQUARE_CORNER_VELOCITY=5
G1 X59.860 Y84.936 F18000
G1 X70.528 Y83.183 F18000
G1 X70.528 Y66.936 F18000
G1 X100.985 Y-9.800 F18000
G1 X100.025 Y-9.800 F18000
G1 X100.025 Y-8.908 F18000
M400
SET_VELOCITY_LIMIT VELOCITY=20 ACCEL=500 SQUARE_CORNER_VELOCITY=5
G1 X100.025 Y-14.800 F1200
M400
G4 P100
QUERY_ENDSTOPS
Y_STEP_LOSS_ASSERT_ENDSTOP PROFILE=speed_300 VELOCITY=300 ACCEL=3500 SCV=5 CYCLE=9 STEP=39
; Check 40/90: profile=speed_300 velocity=300 accel=3500 scv=5 cycle=10
SET_VELOCITY_LIMIT VELOCITY=350 ACCEL=1000 SQUARE_CORNER_VELOCITY=5
G1 X59.860 Y84.042 Z10.000 F21000
M400
SET_VELOCITY_LIMIT VELOCITY=300 ACCEL=3500 SQUARE_CORNER_VELOCITY=5
G1 X59.860 Y84.936 F18000
G1 X70.528 Y83.183 F18000
G1 X70.528 Y66.936 F18000
G1 X100.985 Y-9.800 F18000
G1 X100.025 Y-9.800 F18000
G1 X100.025 Y-8.908 F18000
M400
SET_VELOCITY_LIMIT VELOCITY=20 ACCEL=500 SQUARE_CORNER_VELOCITY=5
G1 X100.025 Y-14.800 F1200
M400
G4 P100
QUERY_ENDSTOPS
Y_STEP_LOSS_ASSERT_ENDSTOP PROFILE=speed_300 VELOCITY=300 ACCEL=3500 SCV=5 CYCLE=10 STEP=40
RESPOND TYPE=echo MSG="Y print-motif profile speed_350: velocity 350 mm/s, accel 3500 mm/s^2, SCV 5, 10 cycles."
; Check 41/90: profile=speed_350 velocity=350 accel=3500 scv=5 cycle=1
SET_VELOCITY_LIMIT VELOCITY=350 ACCEL=1000 SQUARE_CORNER_VELOCITY=5
G1 X59.860 Y84.042 Z10.000 F21000
M400
SET_VELOCITY_LIMIT VELOCITY=350 ACCEL=3500 SQUARE_CORNER_VELOCITY=5
G1 X59.860 Y84.936 F21000
G1 X70.528 Y83.183 F21000
G1 X70.528 Y66.936 F21000
G1 X100.985 Y-9.800 F21000
G1 X100.025 Y-9.800 F21000
G1 X100.025 Y-8.908 F21000
M400
SET_VELOCITY_LIMIT VELOCITY=20 ACCEL=500 SQUARE_CORNER_VELOCITY=5
G1 X100.025 Y-14.800 F1200
M400
G4 P100
QUERY_ENDSTOPS
Y_STEP_LOSS_ASSERT_ENDSTOP PROFILE=speed_350 VELOCITY=350 ACCEL=3500 SCV=5 CYCLE=1 STEP=41
; Check 42/90: profile=speed_350 velocity=350 accel=3500 scv=5 cycle=2
SET_VELOCITY_LIMIT VELOCITY=350 ACCEL=1000 SQUARE_CORNER_VELOCITY=5
G1 X59.860 Y84.042 Z10.000 F21000
M400
SET_VELOCITY_LIMIT VELOCITY=350 ACCEL=3500 SQUARE_CORNER_VELOCITY=5
G1 X59.860 Y84.936 F21000
G1 X70.528 Y83.183 F21000
G1 X70.528 Y66.936 F21000
G1 X100.985 Y-9.800 F21000
G1 X100.025 Y-9.800 F21000
G1 X100.025 Y-8.908 F21000
M400
SET_VELOCITY_LIMIT VELOCITY=20 ACCEL=500 SQUARE_CORNER_VELOCITY=5
G1 X100.025 Y-14.800 F1200
M400
G4 P100
QUERY_ENDSTOPS
Y_STEP_LOSS_ASSERT_ENDSTOP PROFILE=speed_350 VELOCITY=350 ACCEL=3500 SCV=5 CYCLE=2 STEP=42
; Check 43/90: profile=speed_350 velocity=350 accel=3500 scv=5 cycle=3
SET_VELOCITY_LIMIT VELOCITY=350 ACCEL=1000 SQUARE_CORNER_VELOCITY=5
G1 X59.860 Y84.042 Z10.000 F21000
M400
SET_VELOCITY_LIMIT VELOCITY=350 ACCEL=3500 SQUARE_CORNER_VELOCITY=5
G1 X59.860 Y84.936 F21000
G1 X70.528 Y83.183 F21000
G1 X70.528 Y66.936 F21000
G1 X100.985 Y-9.800 F21000
G1 X100.025 Y-9.800 F21000
G1 X100.025 Y-8.908 F21000
M400
SET_VELOCITY_LIMIT VELOCITY=20 ACCEL=500 SQUARE_CORNER_VELOCITY=5
G1 X100.025 Y-14.800 F1200
M400
G4 P100
QUERY_ENDSTOPS
Y_STEP_LOSS_ASSERT_ENDSTOP PROFILE=speed_350 VELOCITY=350 ACCEL=3500 SCV=5 CYCLE=3 STEP=43
; Check 44/90: profile=speed_350 velocity=350 accel=3500 scv=5 cycle=4
SET_VELOCITY_LIMIT VELOCITY=350 ACCEL=1000 SQUARE_CORNER_VELOCITY=5
G1 X59.860 Y84.042 Z10.000 F21000
M400
SET_VELOCITY_LIMIT VELOCITY=350 ACCEL=3500 SQUARE_CORNER_VELOCITY=5
G1 X59.860 Y84.936 F21000
G1 X70.528 Y83.183 F21000
G1 X70.528 Y66.936 F21000
G1 X100.985 Y-9.800 F21000
G1 X100.025 Y-9.800 F21000
G1 X100.025 Y-8.908 F21000
M400
SET_VELOCITY_LIMIT VELOCITY=20 ACCEL=500 SQUARE_CORNER_VELOCITY=5
G1 X100.025 Y-14.800 F1200
M400
G4 P100
QUERY_ENDSTOPS
Y_STEP_LOSS_ASSERT_ENDSTOP PROFILE=speed_350 VELOCITY=350 ACCEL=3500 SCV=5 CYCLE=4 STEP=44
; Check 45/90: profile=speed_350 velocity=350 accel=3500 scv=5 cycle=5
SET_VELOCITY_LIMIT VELOCITY=350 ACCEL=1000 SQUARE_CORNER_VELOCITY=5
G1 X59.860 Y84.042 Z10.000 F21000
M400
SET_VELOCITY_LIMIT VELOCITY=350 ACCEL=3500 SQUARE_CORNER_VELOCITY=5
G1 X59.860 Y84.936 F21000
G1 X70.528 Y83.183 F21000
G1 X70.528 Y66.936 F21000
G1 X100.985 Y-9.800 F21000
G1 X100.025 Y-9.800 F21000
G1 X100.025 Y-8.908 F21000
M400
SET_VELOCITY_LIMIT VELOCITY=20 ACCEL=500 SQUARE_CORNER_VELOCITY=5
G1 X100.025 Y-14.800 F1200
M400
G4 P100
QUERY_ENDSTOPS
Y_STEP_LOSS_ASSERT_ENDSTOP PROFILE=speed_350 VELOCITY=350 ACCEL=3500 SCV=5 CYCLE=5 STEP=45
; Check 46/90: profile=speed_350 velocity=350 accel=3500 scv=5 cycle=6
SET_VELOCITY_LIMIT VELOCITY=350 ACCEL=1000 SQUARE_CORNER_VELOCITY=5
G1 X59.860 Y84.042 Z10.000 F21000
M400
SET_VELOCITY_LIMIT VELOCITY=350 ACCEL=3500 SQUARE_CORNER_VELOCITY=5
G1 X59.860 Y84.936 F21000
G1 X70.528 Y83.183 F21000
G1 X70.528 Y66.936 F21000
G1 X100.985 Y-9.800 F21000
G1 X100.025 Y-9.800 F21000
G1 X100.025 Y-8.908 F21000
M400
SET_VELOCITY_LIMIT VELOCITY=20 ACCEL=500 SQUARE_CORNER_VELOCITY=5
G1 X100.025 Y-14.800 F1200
M400
G4 P100
QUERY_ENDSTOPS
Y_STEP_LOSS_ASSERT_ENDSTOP PROFILE=speed_350 VELOCITY=350 ACCEL=3500 SCV=5 CYCLE=6 STEP=46
; Check 47/90: profile=speed_350 velocity=350 accel=3500 scv=5 cycle=7
SET_VELOCITY_LIMIT VELOCITY=350 ACCEL=1000 SQUARE_CORNER_VELOCITY=5
G1 X59.860 Y84.042 Z10.000 F21000
M400
SET_VELOCITY_LIMIT VELOCITY=350 ACCEL=3500 SQUARE_CORNER_VELOCITY=5
G1 X59.860 Y84.936 F21000
G1 X70.528 Y83.183 F21000
G1 X70.528 Y66.936 F21000
G1 X100.985 Y-9.800 F21000
G1 X100.025 Y-9.800 F21000
G1 X100.025 Y-8.908 F21000
M400
SET_VELOCITY_LIMIT VELOCITY=20 ACCEL=500 SQUARE_CORNER_VELOCITY=5
G1 X100.025 Y-14.800 F1200
M400
G4 P100
QUERY_ENDSTOPS
Y_STEP_LOSS_ASSERT_ENDSTOP PROFILE=speed_350 VELOCITY=350 ACCEL=3500 SCV=5 CYCLE=7 STEP=47
; Check 48/90: profile=speed_350 velocity=350 accel=3500 scv=5 cycle=8
SET_VELOCITY_LIMIT VELOCITY=350 ACCEL=1000 SQUARE_CORNER_VELOCITY=5
G1 X59.860 Y84.042 Z10.000 F21000
M400
SET_VELOCITY_LIMIT VELOCITY=350 ACCEL=3500 SQUARE_CORNER_VELOCITY=5
G1 X59.860 Y84.936 F21000
G1 X70.528 Y83.183 F21000
G1 X70.528 Y66.936 F21000
G1 X100.985 Y-9.800 F21000
G1 X100.025 Y-9.800 F21000
G1 X100.025 Y-8.908 F21000
M400
SET_VELOCITY_LIMIT VELOCITY=20 ACCEL=500 SQUARE_CORNER_VELOCITY=5
G1 X100.025 Y-14.800 F1200
M400
G4 P100
QUERY_ENDSTOPS
Y_STEP_LOSS_ASSERT_ENDSTOP PROFILE=speed_350 VELOCITY=350 ACCEL=3500 SCV=5 CYCLE=8 STEP=48
; Check 49/90: profile=speed_350 velocity=350 accel=3500 scv=5 cycle=9
SET_VELOCITY_LIMIT VELOCITY=350 ACCEL=1000 SQUARE_CORNER_VELOCITY=5
G1 X59.860 Y84.042 Z10.000 F21000
M400
SET_VELOCITY_LIMIT VELOCITY=350 ACCEL=3500 SQUARE_CORNER_VELOCITY=5
G1 X59.860 Y84.936 F21000
G1 X70.528 Y83.183 F21000
G1 X70.528 Y66.936 F21000
G1 X100.985 Y-9.800 F21000
G1 X100.025 Y-9.800 F21000
G1 X100.025 Y-8.908 F21000
M400
SET_VELOCITY_LIMIT VELOCITY=20 ACCEL=500 SQUARE_CORNER_VELOCITY=5
G1 X100.025 Y-14.800 F1200
M400
G4 P100
QUERY_ENDSTOPS
Y_STEP_LOSS_ASSERT_ENDSTOP PROFILE=speed_350 VELOCITY=350 ACCEL=3500 SCV=5 CYCLE=9 STEP=49
; Check 50/90: profile=speed_350 velocity=350 accel=3500 scv=5 cycle=10
SET_VELOCITY_LIMIT VELOCITY=350 ACCEL=1000 SQUARE_CORNER_VELOCITY=5
G1 X59.860 Y84.042 Z10.000 F21000
M400
SET_VELOCITY_LIMIT VELOCITY=350 ACCEL=3500 SQUARE_CORNER_VELOCITY=5
G1 X59.860 Y84.936 F21000
G1 X70.528 Y83.183 F21000
G1 X70.528 Y66.936 F21000
G1 X100.985 Y-9.800 F21000
G1 X100.025 Y-9.800 F21000
G1 X100.025 Y-8.908 F21000
M400
SET_VELOCITY_LIMIT VELOCITY=20 ACCEL=500 SQUARE_CORNER_VELOCITY=5
G1 X100.025 Y-14.800 F1200
M400
G4 P100
QUERY_ENDSTOPS
Y_STEP_LOSS_ASSERT_ENDSTOP PROFILE=speed_350 VELOCITY=350 ACCEL=3500 SCV=5 CYCLE=10 STEP=50
RESPOND TYPE=echo MSG="Y print-motif profile speed_400: velocity 400 mm/s, accel 3500 mm/s^2, SCV 5, 10 cycles."
; Check 51/90: profile=speed_400 velocity=400 accel=3500 scv=5 cycle=1
SET_VELOCITY_LIMIT VELOCITY=350 ACCEL=1000 SQUARE_CORNER_VELOCITY=5
G1 X59.860 Y84.042 Z10.000 F21000
M400
SET_VELOCITY_LIMIT VELOCITY=400 ACCEL=3500 SQUARE_CORNER_VELOCITY=5
G1 X59.860 Y84.936 F24000
G1 X70.528 Y83.183 F24000
G1 X70.528 Y66.936 F24000
G1 X100.985 Y-9.800 F24000
G1 X100.025 Y-9.800 F24000
G1 X100.025 Y-8.908 F24000
M400
SET_VELOCITY_LIMIT VELOCITY=20 ACCEL=500 SQUARE_CORNER_VELOCITY=5
G1 X100.025 Y-14.800 F1200
M400
G4 P100
QUERY_ENDSTOPS
Y_STEP_LOSS_ASSERT_ENDSTOP PROFILE=speed_400 VELOCITY=400 ACCEL=3500 SCV=5 CYCLE=1 STEP=51
; Check 52/90: profile=speed_400 velocity=400 accel=3500 scv=5 cycle=2
SET_VELOCITY_LIMIT VELOCITY=350 ACCEL=1000 SQUARE_CORNER_VELOCITY=5
G1 X59.860 Y84.042 Z10.000 F21000
M400
SET_VELOCITY_LIMIT VELOCITY=400 ACCEL=3500 SQUARE_CORNER_VELOCITY=5
G1 X59.860 Y84.936 F24000
G1 X70.528 Y83.183 F24000
G1 X70.528 Y66.936 F24000
G1 X100.985 Y-9.800 F24000
G1 X100.025 Y-9.800 F24000
G1 X100.025 Y-8.908 F24000
M400
SET_VELOCITY_LIMIT VELOCITY=20 ACCEL=500 SQUARE_CORNER_VELOCITY=5
G1 X100.025 Y-14.800 F1200
M400
G4 P100
QUERY_ENDSTOPS
Y_STEP_LOSS_ASSERT_ENDSTOP PROFILE=speed_400 VELOCITY=400 ACCEL=3500 SCV=5 CYCLE=2 STEP=52
; Check 53/90: profile=speed_400 velocity=400 accel=3500 scv=5 cycle=3
SET_VELOCITY_LIMIT VELOCITY=350 ACCEL=1000 SQUARE_CORNER_VELOCITY=5
G1 X59.860 Y84.042 Z10.000 F21000
M400
SET_VELOCITY_LIMIT VELOCITY=400 ACCEL=3500 SQUARE_CORNER_VELOCITY=5
G1 X59.860 Y84.936 F24000
G1 X70.528 Y83.183 F24000
G1 X70.528 Y66.936 F24000
G1 X100.985 Y-9.800 F24000
G1 X100.025 Y-9.800 F24000
G1 X100.025 Y-8.908 F24000
M400
SET_VELOCITY_LIMIT VELOCITY=20 ACCEL=500 SQUARE_CORNER_VELOCITY=5
G1 X100.025 Y-14.800 F1200
M400
G4 P100
QUERY_ENDSTOPS
Y_STEP_LOSS_ASSERT_ENDSTOP PROFILE=speed_400 VELOCITY=400 ACCEL=3500 SCV=5 CYCLE=3 STEP=53
; Check 54/90: profile=speed_400 velocity=400 accel=3500 scv=5 cycle=4
SET_VELOCITY_LIMIT VELOCITY=350 ACCEL=1000 SQUARE_CORNER_VELOCITY=5
G1 X59.860 Y84.042 Z10.000 F21000
M400
SET_VELOCITY_LIMIT VELOCITY=400 ACCEL=3500 SQUARE_CORNER_VELOCITY=5
G1 X59.860 Y84.936 F24000
G1 X70.528 Y83.183 F24000
G1 X70.528 Y66.936 F24000
G1 X100.985 Y-9.800 F24000
G1 X100.025 Y-9.800 F24000
G1 X100.025 Y-8.908 F24000
M400
SET_VELOCITY_LIMIT VELOCITY=20 ACCEL=500 SQUARE_CORNER_VELOCITY=5
G1 X100.025 Y-14.800 F1200
M400
G4 P100
QUERY_ENDSTOPS
Y_STEP_LOSS_ASSERT_ENDSTOP PROFILE=speed_400 VELOCITY=400 ACCEL=3500 SCV=5 CYCLE=4 STEP=54
; Check 55/90: profile=speed_400 velocity=400 accel=3500 scv=5 cycle=5
SET_VELOCITY_LIMIT VELOCITY=350 ACCEL=1000 SQUARE_CORNER_VELOCITY=5
G1 X59.860 Y84.042 Z10.000 F21000
M400
SET_VELOCITY_LIMIT VELOCITY=400 ACCEL=3500 SQUARE_CORNER_VELOCITY=5
G1 X59.860 Y84.936 F24000
G1 X70.528 Y83.183 F24000
G1 X70.528 Y66.936 F24000
G1 X100.985 Y-9.800 F24000
G1 X100.025 Y-9.800 F24000
G1 X100.025 Y-8.908 F24000
M400
SET_VELOCITY_LIMIT VELOCITY=20 ACCEL=500 SQUARE_CORNER_VELOCITY=5
G1 X100.025 Y-14.800 F1200
M400
G4 P100
QUERY_ENDSTOPS
Y_STEP_LOSS_ASSERT_ENDSTOP PROFILE=speed_400 VELOCITY=400 ACCEL=3500 SCV=5 CYCLE=5 STEP=55
; Check 56/90: profile=speed_400 velocity=400 accel=3500 scv=5 cycle=6
SET_VELOCITY_LIMIT VELOCITY=350 ACCEL=1000 SQUARE_CORNER_VELOCITY=5
G1 X59.860 Y84.042 Z10.000 F21000
M400
SET_VELOCITY_LIMIT VELOCITY=400 ACCEL=3500 SQUARE_CORNER_VELOCITY=5
G1 X59.860 Y84.936 F24000
G1 X70.528 Y83.183 F24000
G1 X70.528 Y66.936 F24000
G1 X100.985 Y-9.800 F24000
G1 X100.025 Y-9.800 F24000
G1 X100.025 Y-8.908 F24000
M400
SET_VELOCITY_LIMIT VELOCITY=20 ACCEL=500 SQUARE_CORNER_VELOCITY=5
G1 X100.025 Y-14.800 F1200
M400
G4 P100
QUERY_ENDSTOPS
Y_STEP_LOSS_ASSERT_ENDSTOP PROFILE=speed_400 VELOCITY=400 ACCEL=3500 SCV=5 CYCLE=6 STEP=56
; Check 57/90: profile=speed_400 velocity=400 accel=3500 scv=5 cycle=7
SET_VELOCITY_LIMIT VELOCITY=350 ACCEL=1000 SQUARE_CORNER_VELOCITY=5
G1 X59.860 Y84.042 Z10.000 F21000
M400
SET_VELOCITY_LIMIT VELOCITY=400 ACCEL=3500 SQUARE_CORNER_VELOCITY=5
G1 X59.860 Y84.936 F24000
G1 X70.528 Y83.183 F24000
G1 X70.528 Y66.936 F24000
G1 X100.985 Y-9.800 F24000
G1 X100.025 Y-9.800 F24000
G1 X100.025 Y-8.908 F24000
M400
SET_VELOCITY_LIMIT VELOCITY=20 ACCEL=500 SQUARE_CORNER_VELOCITY=5
G1 X100.025 Y-14.800 F1200
M400
G4 P100
QUERY_ENDSTOPS
Y_STEP_LOSS_ASSERT_ENDSTOP PROFILE=speed_400 VELOCITY=400 ACCEL=3500 SCV=5 CYCLE=7 STEP=57
; Check 58/90: profile=speed_400 velocity=400 accel=3500 scv=5 cycle=8
SET_VELOCITY_LIMIT VELOCITY=350 ACCEL=1000 SQUARE_CORNER_VELOCITY=5
G1 X59.860 Y84.042 Z10.000 F21000
M400
SET_VELOCITY_LIMIT VELOCITY=400 ACCEL=3500 SQUARE_CORNER_VELOCITY=5
G1 X59.860 Y84.936 F24000
G1 X70.528 Y83.183 F24000
G1 X70.528 Y66.936 F24000
G1 X100.985 Y-9.800 F24000
G1 X100.025 Y-9.800 F24000
G1 X100.025 Y-8.908 F24000
M400
SET_VELOCITY_LIMIT VELOCITY=20 ACCEL=500 SQUARE_CORNER_VELOCITY=5
G1 X100.025 Y-14.800 F1200
M400
G4 P100
QUERY_ENDSTOPS
Y_STEP_LOSS_ASSERT_ENDSTOP PROFILE=speed_400 VELOCITY=400 ACCEL=3500 SCV=5 CYCLE=8 STEP=58
; Check 59/90: profile=speed_400 velocity=400 accel=3500 scv=5 cycle=9
SET_VELOCITY_LIMIT VELOCITY=350 ACCEL=1000 SQUARE_CORNER_VELOCITY=5
G1 X59.860 Y84.042 Z10.000 F21000
M400
SET_VELOCITY_LIMIT VELOCITY=400 ACCEL=3500 SQUARE_CORNER_VELOCITY=5
G1 X59.860 Y84.936 F24000
G1 X70.528 Y83.183 F24000
G1 X70.528 Y66.936 F24000
G1 X100.985 Y-9.800 F24000
G1 X100.025 Y-9.800 F24000
G1 X100.025 Y-8.908 F24000
M400
SET_VELOCITY_LIMIT VELOCITY=20 ACCEL=500 SQUARE_CORNER_VELOCITY=5
G1 X100.025 Y-14.800 F1200
M400
G4 P100
QUERY_ENDSTOPS
Y_STEP_LOSS_ASSERT_ENDSTOP PROFILE=speed_400 VELOCITY=400 ACCEL=3500 SCV=5 CYCLE=9 STEP=59
; Check 60/90: profile=speed_400 velocity=400 accel=3500 scv=5 cycle=10
SET_VELOCITY_LIMIT VELOCITY=350 ACCEL=1000 SQUARE_CORNER_VELOCITY=5
G1 X59.860 Y84.042 Z10.000 F21000
M400
SET_VELOCITY_LIMIT VELOCITY=400 ACCEL=3500 SQUARE_CORNER_VELOCITY=5
G1 X59.860 Y84.936 F24000
G1 X70.528 Y83.183 F24000
G1 X70.528 Y66.936 F24000
G1 X100.985 Y-9.800 F24000
G1 X100.025 Y-9.800 F24000
G1 X100.025 Y-8.908 F24000
M400
SET_VELOCITY_LIMIT VELOCITY=20 ACCEL=500 SQUARE_CORNER_VELOCITY=5
G1 X100.025 Y-14.800 F1200
M400
G4 P100
QUERY_ENDSTOPS
Y_STEP_LOSS_ASSERT_ENDSTOP PROFILE=speed_400 VELOCITY=400 ACCEL=3500 SCV=5 CYCLE=10 STEP=60
RESPOND TYPE=echo MSG="Y print-motif profile scv_3: velocity 350 mm/s, accel 3500 mm/s^2, SCV 3, 10 cycles."
; Check 61/90: profile=scv_3 velocity=350 accel=3500 scv=3 cycle=1
SET_VELOCITY_LIMIT VELOCITY=350 ACCEL=1000 SQUARE_CORNER_VELOCITY=5
G1 X59.860 Y84.042 Z10.000 F21000
M400
SET_VELOCITY_LIMIT VELOCITY=350 ACCEL=3500 SQUARE_CORNER_VELOCITY=3
G1 X59.860 Y84.936 F21000
G1 X70.528 Y83.183 F21000
G1 X70.528 Y66.936 F21000
G1 X100.985 Y-9.800 F21000
G1 X100.025 Y-9.800 F21000
G1 X100.025 Y-8.908 F21000
M400
SET_VELOCITY_LIMIT VELOCITY=20 ACCEL=500 SQUARE_CORNER_VELOCITY=3
G1 X100.025 Y-14.800 F1200
M400
G4 P100
QUERY_ENDSTOPS
Y_STEP_LOSS_ASSERT_ENDSTOP PROFILE=scv_3 VELOCITY=350 ACCEL=3500 SCV=3 CYCLE=1 STEP=61
; Check 62/90: profile=scv_3 velocity=350 accel=3500 scv=3 cycle=2
SET_VELOCITY_LIMIT VELOCITY=350 ACCEL=1000 SQUARE_CORNER_VELOCITY=5
G1 X59.860 Y84.042 Z10.000 F21000
M400
SET_VELOCITY_LIMIT VELOCITY=350 ACCEL=3500 SQUARE_CORNER_VELOCITY=3
G1 X59.860 Y84.936 F21000
G1 X70.528 Y83.183 F21000
G1 X70.528 Y66.936 F21000
G1 X100.985 Y-9.800 F21000
G1 X100.025 Y-9.800 F21000
G1 X100.025 Y-8.908 F21000
M400
SET_VELOCITY_LIMIT VELOCITY=20 ACCEL=500 SQUARE_CORNER_VELOCITY=3
G1 X100.025 Y-14.800 F1200
M400
G4 P100
QUERY_ENDSTOPS
Y_STEP_LOSS_ASSERT_ENDSTOP PROFILE=scv_3 VELOCITY=350 ACCEL=3500 SCV=3 CYCLE=2 STEP=62
; Check 63/90: profile=scv_3 velocity=350 accel=3500 scv=3 cycle=3
SET_VELOCITY_LIMIT VELOCITY=350 ACCEL=1000 SQUARE_CORNER_VELOCITY=5
G1 X59.860 Y84.042 Z10.000 F21000
M400
SET_VELOCITY_LIMIT VELOCITY=350 ACCEL=3500 SQUARE_CORNER_VELOCITY=3
G1 X59.860 Y84.936 F21000
G1 X70.528 Y83.183 F21000
G1 X70.528 Y66.936 F21000
G1 X100.985 Y-9.800 F21000
G1 X100.025 Y-9.800 F21000
G1 X100.025 Y-8.908 F21000
M400
SET_VELOCITY_LIMIT VELOCITY=20 ACCEL=500 SQUARE_CORNER_VELOCITY=3
G1 X100.025 Y-14.800 F1200
M400
G4 P100
QUERY_ENDSTOPS
Y_STEP_LOSS_ASSERT_ENDSTOP PROFILE=scv_3 VELOCITY=350 ACCEL=3500 SCV=3 CYCLE=3 STEP=63
; Check 64/90: profile=scv_3 velocity=350 accel=3500 scv=3 cycle=4
SET_VELOCITY_LIMIT VELOCITY=350 ACCEL=1000 SQUARE_CORNER_VELOCITY=5
G1 X59.860 Y84.042 Z10.000 F21000
M400
SET_VELOCITY_LIMIT VELOCITY=350 ACCEL=3500 SQUARE_CORNER_VELOCITY=3
G1 X59.860 Y84.936 F21000
G1 X70.528 Y83.183 F21000
G1 X70.528 Y66.936 F21000
G1 X100.985 Y-9.800 F21000
G1 X100.025 Y-9.800 F21000
G1 X100.025 Y-8.908 F21000
M400
SET_VELOCITY_LIMIT VELOCITY=20 ACCEL=500 SQUARE_CORNER_VELOCITY=3
G1 X100.025 Y-14.800 F1200
M400
G4 P100
QUERY_ENDSTOPS
Y_STEP_LOSS_ASSERT_ENDSTOP PROFILE=scv_3 VELOCITY=350 ACCEL=3500 SCV=3 CYCLE=4 STEP=64
; Check 65/90: profile=scv_3 velocity=350 accel=3500 scv=3 cycle=5
SET_VELOCITY_LIMIT VELOCITY=350 ACCEL=1000 SQUARE_CORNER_VELOCITY=5
G1 X59.860 Y84.042 Z10.000 F21000
M400
SET_VELOCITY_LIMIT VELOCITY=350 ACCEL=3500 SQUARE_CORNER_VELOCITY=3
G1 X59.860 Y84.936 F21000
G1 X70.528 Y83.183 F21000
G1 X70.528 Y66.936 F21000
G1 X100.985 Y-9.800 F21000
G1 X100.025 Y-9.800 F21000
G1 X100.025 Y-8.908 F21000
M400
SET_VELOCITY_LIMIT VELOCITY=20 ACCEL=500 SQUARE_CORNER_VELOCITY=3
G1 X100.025 Y-14.800 F1200
M400
G4 P100
QUERY_ENDSTOPS
Y_STEP_LOSS_ASSERT_ENDSTOP PROFILE=scv_3 VELOCITY=350 ACCEL=3500 SCV=3 CYCLE=5 STEP=65
; Check 66/90: profile=scv_3 velocity=350 accel=3500 scv=3 cycle=6
SET_VELOCITY_LIMIT VELOCITY=350 ACCEL=1000 SQUARE_CORNER_VELOCITY=5
G1 X59.860 Y84.042 Z10.000 F21000
M400
SET_VELOCITY_LIMIT VELOCITY=350 ACCEL=3500 SQUARE_CORNER_VELOCITY=3
G1 X59.860 Y84.936 F21000
G1 X70.528 Y83.183 F21000
G1 X70.528 Y66.936 F21000
G1 X100.985 Y-9.800 F21000
G1 X100.025 Y-9.800 F21000
G1 X100.025 Y-8.908 F21000
M400
SET_VELOCITY_LIMIT VELOCITY=20 ACCEL=500 SQUARE_CORNER_VELOCITY=3
G1 X100.025 Y-14.800 F1200
M400
G4 P100
QUERY_ENDSTOPS
Y_STEP_LOSS_ASSERT_ENDSTOP PROFILE=scv_3 VELOCITY=350 ACCEL=3500 SCV=3 CYCLE=6 STEP=66
; Check 67/90: profile=scv_3 velocity=350 accel=3500 scv=3 cycle=7
SET_VELOCITY_LIMIT VELOCITY=350 ACCEL=1000 SQUARE_CORNER_VELOCITY=5
G1 X59.860 Y84.042 Z10.000 F21000
M400
SET_VELOCITY_LIMIT VELOCITY=350 ACCEL=3500 SQUARE_CORNER_VELOCITY=3
G1 X59.860 Y84.936 F21000
G1 X70.528 Y83.183 F21000
G1 X70.528 Y66.936 F21000
G1 X100.985 Y-9.800 F21000
G1 X100.025 Y-9.800 F21000
G1 X100.025 Y-8.908 F21000
M400
SET_VELOCITY_LIMIT VELOCITY=20 ACCEL=500 SQUARE_CORNER_VELOCITY=3
G1 X100.025 Y-14.800 F1200
M400
G4 P100
QUERY_ENDSTOPS
Y_STEP_LOSS_ASSERT_ENDSTOP PROFILE=scv_3 VELOCITY=350 ACCEL=3500 SCV=3 CYCLE=7 STEP=67
; Check 68/90: profile=scv_3 velocity=350 accel=3500 scv=3 cycle=8
SET_VELOCITY_LIMIT VELOCITY=350 ACCEL=1000 SQUARE_CORNER_VELOCITY=5
G1 X59.860 Y84.042 Z10.000 F21000
M400
SET_VELOCITY_LIMIT VELOCITY=350 ACCEL=3500 SQUARE_CORNER_VELOCITY=3
G1 X59.860 Y84.936 F21000
G1 X70.528 Y83.183 F21000
G1 X70.528 Y66.936 F21000
G1 X100.985 Y-9.800 F21000
G1 X100.025 Y-9.800 F21000
G1 X100.025 Y-8.908 F21000
M400
SET_VELOCITY_LIMIT VELOCITY=20 ACCEL=500 SQUARE_CORNER_VELOCITY=3
G1 X100.025 Y-14.800 F1200
M400
G4 P100
QUERY_ENDSTOPS
Y_STEP_LOSS_ASSERT_ENDSTOP PROFILE=scv_3 VELOCITY=350 ACCEL=3500 SCV=3 CYCLE=8 STEP=68
; Check 69/90: profile=scv_3 velocity=350 accel=3500 scv=3 cycle=9
SET_VELOCITY_LIMIT VELOCITY=350 ACCEL=1000 SQUARE_CORNER_VELOCITY=5
G1 X59.860 Y84.042 Z10.000 F21000
M400
SET_VELOCITY_LIMIT VELOCITY=350 ACCEL=3500 SQUARE_CORNER_VELOCITY=3
G1 X59.860 Y84.936 F21000
G1 X70.528 Y83.183 F21000
G1 X70.528 Y66.936 F21000
G1 X100.985 Y-9.800 F21000
G1 X100.025 Y-9.800 F21000
G1 X100.025 Y-8.908 F21000
M400
SET_VELOCITY_LIMIT VELOCITY=20 ACCEL=500 SQUARE_CORNER_VELOCITY=3
G1 X100.025 Y-14.800 F1200
M400
G4 P100
QUERY_ENDSTOPS
Y_STEP_LOSS_ASSERT_ENDSTOP PROFILE=scv_3 VELOCITY=350 ACCEL=3500 SCV=3 CYCLE=9 STEP=69
; Check 70/90: profile=scv_3 velocity=350 accel=3500 scv=3 cycle=10
SET_VELOCITY_LIMIT VELOCITY=350 ACCEL=1000 SQUARE_CORNER_VELOCITY=5
G1 X59.860 Y84.042 Z10.000 F21000
M400
SET_VELOCITY_LIMIT VELOCITY=350 ACCEL=3500 SQUARE_CORNER_VELOCITY=3
G1 X59.860 Y84.936 F21000
G1 X70.528 Y83.183 F21000
G1 X70.528 Y66.936 F21000
G1 X100.985 Y-9.800 F21000
G1 X100.025 Y-9.800 F21000
G1 X100.025 Y-8.908 F21000
M400
SET_VELOCITY_LIMIT VELOCITY=20 ACCEL=500 SQUARE_CORNER_VELOCITY=3
G1 X100.025 Y-14.800 F1200
M400
G4 P100
QUERY_ENDSTOPS
Y_STEP_LOSS_ASSERT_ENDSTOP PROFILE=scv_3 VELOCITY=350 ACCEL=3500 SCV=3 CYCLE=10 STEP=70
RESPOND TYPE=echo MSG="Y print-motif profile scv_5: velocity 350 mm/s, accel 3500 mm/s^2, SCV 5, 10 cycles."
; Check 71/90: profile=scv_5 velocity=350 accel=3500 scv=5 cycle=1
SET_VELOCITY_LIMIT VELOCITY=350 ACCEL=1000 SQUARE_CORNER_VELOCITY=5
G1 X59.860 Y84.042 Z10.000 F21000
M400
SET_VELOCITY_LIMIT VELOCITY=350 ACCEL=3500 SQUARE_CORNER_VELOCITY=5
G1 X59.860 Y84.936 F21000
G1 X70.528 Y83.183 F21000
G1 X70.528 Y66.936 F21000
G1 X100.985 Y-9.800 F21000
G1 X100.025 Y-9.800 F21000
G1 X100.025 Y-8.908 F21000
M400
SET_VELOCITY_LIMIT VELOCITY=20 ACCEL=500 SQUARE_CORNER_VELOCITY=5
G1 X100.025 Y-14.800 F1200
M400
G4 P100
QUERY_ENDSTOPS
Y_STEP_LOSS_ASSERT_ENDSTOP PROFILE=scv_5 VELOCITY=350 ACCEL=3500 SCV=5 CYCLE=1 STEP=71
; Check 72/90: profile=scv_5 velocity=350 accel=3500 scv=5 cycle=2
SET_VELOCITY_LIMIT VELOCITY=350 ACCEL=1000 SQUARE_CORNER_VELOCITY=5
G1 X59.860 Y84.042 Z10.000 F21000
M400
SET_VELOCITY_LIMIT VELOCITY=350 ACCEL=3500 SQUARE_CORNER_VELOCITY=5
G1 X59.860 Y84.936 F21000
G1 X70.528 Y83.183 F21000
G1 X70.528 Y66.936 F21000
G1 X100.985 Y-9.800 F21000
G1 X100.025 Y-9.800 F21000
G1 X100.025 Y-8.908 F21000
M400
SET_VELOCITY_LIMIT VELOCITY=20 ACCEL=500 SQUARE_CORNER_VELOCITY=5
G1 X100.025 Y-14.800 F1200
M400
G4 P100
QUERY_ENDSTOPS
Y_STEP_LOSS_ASSERT_ENDSTOP PROFILE=scv_5 VELOCITY=350 ACCEL=3500 SCV=5 CYCLE=2 STEP=72
; Check 73/90: profile=scv_5 velocity=350 accel=3500 scv=5 cycle=3
SET_VELOCITY_LIMIT VELOCITY=350 ACCEL=1000 SQUARE_CORNER_VELOCITY=5
G1 X59.860 Y84.042 Z10.000 F21000
M400
SET_VELOCITY_LIMIT VELOCITY=350 ACCEL=3500 SQUARE_CORNER_VELOCITY=5
G1 X59.860 Y84.936 F21000
G1 X70.528 Y83.183 F21000
G1 X70.528 Y66.936 F21000
G1 X100.985 Y-9.800 F21000
G1 X100.025 Y-9.800 F21000
G1 X100.025 Y-8.908 F21000
M400
SET_VELOCITY_LIMIT VELOCITY=20 ACCEL=500 SQUARE_CORNER_VELOCITY=5
G1 X100.025 Y-14.800 F1200
M400
G4 P100
QUERY_ENDSTOPS
Y_STEP_LOSS_ASSERT_ENDSTOP PROFILE=scv_5 VELOCITY=350 ACCEL=3500 SCV=5 CYCLE=3 STEP=73
; Check 74/90: profile=scv_5 velocity=350 accel=3500 scv=5 cycle=4
SET_VELOCITY_LIMIT VELOCITY=350 ACCEL=1000 SQUARE_CORNER_VELOCITY=5
G1 X59.860 Y84.042 Z10.000 F21000
M400
SET_VELOCITY_LIMIT VELOCITY=350 ACCEL=3500 SQUARE_CORNER_VELOCITY=5
G1 X59.860 Y84.936 F21000
G1 X70.528 Y83.183 F21000
G1 X70.528 Y66.936 F21000
G1 X100.985 Y-9.800 F21000
G1 X100.025 Y-9.800 F21000
G1 X100.025 Y-8.908 F21000
M400
SET_VELOCITY_LIMIT VELOCITY=20 ACCEL=500 SQUARE_CORNER_VELOCITY=5
G1 X100.025 Y-14.800 F1200
M400
G4 P100
QUERY_ENDSTOPS
Y_STEP_LOSS_ASSERT_ENDSTOP PROFILE=scv_5 VELOCITY=350 ACCEL=3500 SCV=5 CYCLE=4 STEP=74
; Check 75/90: profile=scv_5 velocity=350 accel=3500 scv=5 cycle=5
SET_VELOCITY_LIMIT VELOCITY=350 ACCEL=1000 SQUARE_CORNER_VELOCITY=5
G1 X59.860 Y84.042 Z10.000 F21000
M400
SET_VELOCITY_LIMIT VELOCITY=350 ACCEL=3500 SQUARE_CORNER_VELOCITY=5
G1 X59.860 Y84.936 F21000
G1 X70.528 Y83.183 F21000
G1 X70.528 Y66.936 F21000
G1 X100.985 Y-9.800 F21000
G1 X100.025 Y-9.800 F21000
G1 X100.025 Y-8.908 F21000
M400
SET_VELOCITY_LIMIT VELOCITY=20 ACCEL=500 SQUARE_CORNER_VELOCITY=5
G1 X100.025 Y-14.800 F1200
M400
G4 P100
QUERY_ENDSTOPS
Y_STEP_LOSS_ASSERT_ENDSTOP PROFILE=scv_5 VELOCITY=350 ACCEL=3500 SCV=5 CYCLE=5 STEP=75
; Check 76/90: profile=scv_5 velocity=350 accel=3500 scv=5 cycle=6
SET_VELOCITY_LIMIT VELOCITY=350 ACCEL=1000 SQUARE_CORNER_VELOCITY=5
G1 X59.860 Y84.042 Z10.000 F21000
M400
SET_VELOCITY_LIMIT VELOCITY=350 ACCEL=3500 SQUARE_CORNER_VELOCITY=5
G1 X59.860 Y84.936 F21000
G1 X70.528 Y83.183 F21000
G1 X70.528 Y66.936 F21000
G1 X100.985 Y-9.800 F21000
G1 X100.025 Y-9.800 F21000
G1 X100.025 Y-8.908 F21000
M400
SET_VELOCITY_LIMIT VELOCITY=20 ACCEL=500 SQUARE_CORNER_VELOCITY=5
G1 X100.025 Y-14.800 F1200
M400
G4 P100
QUERY_ENDSTOPS
Y_STEP_LOSS_ASSERT_ENDSTOP PROFILE=scv_5 VELOCITY=350 ACCEL=3500 SCV=5 CYCLE=6 STEP=76
; Check 77/90: profile=scv_5 velocity=350 accel=3500 scv=5 cycle=7
SET_VELOCITY_LIMIT VELOCITY=350 ACCEL=1000 SQUARE_CORNER_VELOCITY=5
G1 X59.860 Y84.042 Z10.000 F21000
M400
SET_VELOCITY_LIMIT VELOCITY=350 ACCEL=3500 SQUARE_CORNER_VELOCITY=5
G1 X59.860 Y84.936 F21000
G1 X70.528 Y83.183 F21000
G1 X70.528 Y66.936 F21000
G1 X100.985 Y-9.800 F21000
G1 X100.025 Y-9.800 F21000
G1 X100.025 Y-8.908 F21000
M400
SET_VELOCITY_LIMIT VELOCITY=20 ACCEL=500 SQUARE_CORNER_VELOCITY=5
G1 X100.025 Y-14.800 F1200
M400
G4 P100
QUERY_ENDSTOPS
Y_STEP_LOSS_ASSERT_ENDSTOP PROFILE=scv_5 VELOCITY=350 ACCEL=3500 SCV=5 CYCLE=7 STEP=77
; Check 78/90: profile=scv_5 velocity=350 accel=3500 scv=5 cycle=8
SET_VELOCITY_LIMIT VELOCITY=350 ACCEL=1000 SQUARE_CORNER_VELOCITY=5
G1 X59.860 Y84.042 Z10.000 F21000
M400
SET_VELOCITY_LIMIT VELOCITY=350 ACCEL=3500 SQUARE_CORNER_VELOCITY=5
G1 X59.860 Y84.936 F21000
G1 X70.528 Y83.183 F21000
G1 X70.528 Y66.936 F21000
G1 X100.985 Y-9.800 F21000
G1 X100.025 Y-9.800 F21000
G1 X100.025 Y-8.908 F21000
M400
SET_VELOCITY_LIMIT VELOCITY=20 ACCEL=500 SQUARE_CORNER_VELOCITY=5
G1 X100.025 Y-14.800 F1200
M400
G4 P100
QUERY_ENDSTOPS
Y_STEP_LOSS_ASSERT_ENDSTOP PROFILE=scv_5 VELOCITY=350 ACCEL=3500 SCV=5 CYCLE=8 STEP=78
; Check 79/90: profile=scv_5 velocity=350 accel=3500 scv=5 cycle=9
SET_VELOCITY_LIMIT VELOCITY=350 ACCEL=1000 SQUARE_CORNER_VELOCITY=5
G1 X59.860 Y84.042 Z10.000 F21000
M400
SET_VELOCITY_LIMIT VELOCITY=350 ACCEL=3500 SQUARE_CORNER_VELOCITY=5
G1 X59.860 Y84.936 F21000
G1 X70.528 Y83.183 F21000
G1 X70.528 Y66.936 F21000
G1 X100.985 Y-9.800 F21000
G1 X100.025 Y-9.800 F21000
G1 X100.025 Y-8.908 F21000
M400
SET_VELOCITY_LIMIT VELOCITY=20 ACCEL=500 SQUARE_CORNER_VELOCITY=5
G1 X100.025 Y-14.800 F1200
M400
G4 P100
QUERY_ENDSTOPS
Y_STEP_LOSS_ASSERT_ENDSTOP PROFILE=scv_5 VELOCITY=350 ACCEL=3500 SCV=5 CYCLE=9 STEP=79
; Check 80/90: profile=scv_5 velocity=350 accel=3500 scv=5 cycle=10
SET_VELOCITY_LIMIT VELOCITY=350 ACCEL=1000 SQUARE_CORNER_VELOCITY=5
G1 X59.860 Y84.042 Z10.000 F21000
M400
SET_VELOCITY_LIMIT VELOCITY=350 ACCEL=3500 SQUARE_CORNER_VELOCITY=5
G1 X59.860 Y84.936 F21000
G1 X70.528 Y83.183 F21000
G1 X70.528 Y66.936 F21000
G1 X100.985 Y-9.800 F21000
G1 X100.025 Y-9.800 F21000
G1 X100.025 Y-8.908 F21000
M400
SET_VELOCITY_LIMIT VELOCITY=20 ACCEL=500 SQUARE_CORNER_VELOCITY=5
G1 X100.025 Y-14.800 F1200
M400
G4 P100
QUERY_ENDSTOPS
Y_STEP_LOSS_ASSERT_ENDSTOP PROFILE=scv_5 VELOCITY=350 ACCEL=3500 SCV=5 CYCLE=10 STEP=80
RESPOND TYPE=echo MSG="Y print-motif profile scv_8: velocity 350 mm/s, accel 3500 mm/s^2, SCV 8, 10 cycles."
; Check 81/90: profile=scv_8 velocity=350 accel=3500 scv=8 cycle=1
SET_VELOCITY_LIMIT VELOCITY=350 ACCEL=1000 SQUARE_CORNER_VELOCITY=5
G1 X59.860 Y84.042 Z10.000 F21000
M400
SET_VELOCITY_LIMIT VELOCITY=350 ACCEL=3500 SQUARE_CORNER_VELOCITY=8
G1 X59.860 Y84.936 F21000
G1 X70.528 Y83.183 F21000
G1 X70.528 Y66.936 F21000
G1 X100.985 Y-9.800 F21000
G1 X100.025 Y-9.800 F21000
G1 X100.025 Y-8.908 F21000
M400
SET_VELOCITY_LIMIT VELOCITY=20 ACCEL=500 SQUARE_CORNER_VELOCITY=8
G1 X100.025 Y-14.800 F1200
M400
G4 P100
QUERY_ENDSTOPS
Y_STEP_LOSS_ASSERT_ENDSTOP PROFILE=scv_8 VELOCITY=350 ACCEL=3500 SCV=8 CYCLE=1 STEP=81
; Check 82/90: profile=scv_8 velocity=350 accel=3500 scv=8 cycle=2
SET_VELOCITY_LIMIT VELOCITY=350 ACCEL=1000 SQUARE_CORNER_VELOCITY=5
G1 X59.860 Y84.042 Z10.000 F21000
M400
SET_VELOCITY_LIMIT VELOCITY=350 ACCEL=3500 SQUARE_CORNER_VELOCITY=8
G1 X59.860 Y84.936 F21000
G1 X70.528 Y83.183 F21000
G1 X70.528 Y66.936 F21000
G1 X100.985 Y-9.800 F21000
G1 X100.025 Y-9.800 F21000
G1 X100.025 Y-8.908 F21000
M400
SET_VELOCITY_LIMIT VELOCITY=20 ACCEL=500 SQUARE_CORNER_VELOCITY=8
G1 X100.025 Y-14.800 F1200
M400
G4 P100
QUERY_ENDSTOPS
Y_STEP_LOSS_ASSERT_ENDSTOP PROFILE=scv_8 VELOCITY=350 ACCEL=3500 SCV=8 CYCLE=2 STEP=82
; Check 83/90: profile=scv_8 velocity=350 accel=3500 scv=8 cycle=3
SET_VELOCITY_LIMIT VELOCITY=350 ACCEL=1000 SQUARE_CORNER_VELOCITY=5
G1 X59.860 Y84.042 Z10.000 F21000
M400
SET_VELOCITY_LIMIT VELOCITY=350 ACCEL=3500 SQUARE_CORNER_VELOCITY=8
G1 X59.860 Y84.936 F21000
G1 X70.528 Y83.183 F21000
G1 X70.528 Y66.936 F21000
G1 X100.985 Y-9.800 F21000
G1 X100.025 Y-9.800 F21000
G1 X100.025 Y-8.908 F21000
M400
SET_VELOCITY_LIMIT VELOCITY=20 ACCEL=500 SQUARE_CORNER_VELOCITY=8
G1 X100.025 Y-14.800 F1200
M400
G4 P100
QUERY_ENDSTOPS
Y_STEP_LOSS_ASSERT_ENDSTOP PROFILE=scv_8 VELOCITY=350 ACCEL=3500 SCV=8 CYCLE=3 STEP=83
; Check 84/90: profile=scv_8 velocity=350 accel=3500 scv=8 cycle=4
SET_VELOCITY_LIMIT VELOCITY=350 ACCEL=1000 SQUARE_CORNER_VELOCITY=5
G1 X59.860 Y84.042 Z10.000 F21000
M400
SET_VELOCITY_LIMIT VELOCITY=350 ACCEL=3500 SQUARE_CORNER_VELOCITY=8
G1 X59.860 Y84.936 F21000
G1 X70.528 Y83.183 F21000
G1 X70.528 Y66.936 F21000
G1 X100.985 Y-9.800 F21000
G1 X100.025 Y-9.800 F21000
G1 X100.025 Y-8.908 F21000
M400
SET_VELOCITY_LIMIT VELOCITY=20 ACCEL=500 SQUARE_CORNER_VELOCITY=8
G1 X100.025 Y-14.800 F1200
M400
G4 P100
QUERY_ENDSTOPS
Y_STEP_LOSS_ASSERT_ENDSTOP PROFILE=scv_8 VELOCITY=350 ACCEL=3500 SCV=8 CYCLE=4 STEP=84
; Check 85/90: profile=scv_8 velocity=350 accel=3500 scv=8 cycle=5
SET_VELOCITY_LIMIT VELOCITY=350 ACCEL=1000 SQUARE_CORNER_VELOCITY=5
G1 X59.860 Y84.042 Z10.000 F21000
M400
SET_VELOCITY_LIMIT VELOCITY=350 ACCEL=3500 SQUARE_CORNER_VELOCITY=8
G1 X59.860 Y84.936 F21000
G1 X70.528 Y83.183 F21000
G1 X70.528 Y66.936 F21000
G1 X100.985 Y-9.800 F21000
G1 X100.025 Y-9.800 F21000
G1 X100.025 Y-8.908 F21000
M400
SET_VELOCITY_LIMIT VELOCITY=20 ACCEL=500 SQUARE_CORNER_VELOCITY=8
G1 X100.025 Y-14.800 F1200
M400
G4 P100
QUERY_ENDSTOPS
Y_STEP_LOSS_ASSERT_ENDSTOP PROFILE=scv_8 VELOCITY=350 ACCEL=3500 SCV=8 CYCLE=5 STEP=85
; Check 86/90: profile=scv_8 velocity=350 accel=3500 scv=8 cycle=6
SET_VELOCITY_LIMIT VELOCITY=350 ACCEL=1000 SQUARE_CORNER_VELOCITY=5
G1 X59.860 Y84.042 Z10.000 F21000
M400
SET_VELOCITY_LIMIT VELOCITY=350 ACCEL=3500 SQUARE_CORNER_VELOCITY=8
G1 X59.860 Y84.936 F21000
G1 X70.528 Y83.183 F21000
G1 X70.528 Y66.936 F21000
G1 X100.985 Y-9.800 F21000
G1 X100.025 Y-9.800 F21000
G1 X100.025 Y-8.908 F21000
M400
SET_VELOCITY_LIMIT VELOCITY=20 ACCEL=500 SQUARE_CORNER_VELOCITY=8
G1 X100.025 Y-14.800 F1200
M400
G4 P100
QUERY_ENDSTOPS
Y_STEP_LOSS_ASSERT_ENDSTOP PROFILE=scv_8 VELOCITY=350 ACCEL=3500 SCV=8 CYCLE=6 STEP=86
; Check 87/90: profile=scv_8 velocity=350 accel=3500 scv=8 cycle=7
SET_VELOCITY_LIMIT VELOCITY=350 ACCEL=1000 SQUARE_CORNER_VELOCITY=5
G1 X59.860 Y84.042 Z10.000 F21000
M400
SET_VELOCITY_LIMIT VELOCITY=350 ACCEL=3500 SQUARE_CORNER_VELOCITY=8
G1 X59.860 Y84.936 F21000
G1 X70.528 Y83.183 F21000
G1 X70.528 Y66.936 F21000
G1 X100.985 Y-9.800 F21000
G1 X100.025 Y-9.800 F21000
G1 X100.025 Y-8.908 F21000
M400
SET_VELOCITY_LIMIT VELOCITY=20 ACCEL=500 SQUARE_CORNER_VELOCITY=8
G1 X100.025 Y-14.800 F1200
M400
G4 P100
QUERY_ENDSTOPS
Y_STEP_LOSS_ASSERT_ENDSTOP PROFILE=scv_8 VELOCITY=350 ACCEL=3500 SCV=8 CYCLE=7 STEP=87
; Check 88/90: profile=scv_8 velocity=350 accel=3500 scv=8 cycle=8
SET_VELOCITY_LIMIT VELOCITY=350 ACCEL=1000 SQUARE_CORNER_VELOCITY=5
G1 X59.860 Y84.042 Z10.000 F21000
M400
SET_VELOCITY_LIMIT VELOCITY=350 ACCEL=3500 SQUARE_CORNER_VELOCITY=8
G1 X59.860 Y84.936 F21000
G1 X70.528 Y83.183 F21000
G1 X70.528 Y66.936 F21000
G1 X100.985 Y-9.800 F21000
G1 X100.025 Y-9.800 F21000
G1 X100.025 Y-8.908 F21000
M400
SET_VELOCITY_LIMIT VELOCITY=20 ACCEL=500 SQUARE_CORNER_VELOCITY=8
G1 X100.025 Y-14.800 F1200
M400
G4 P100
QUERY_ENDSTOPS
Y_STEP_LOSS_ASSERT_ENDSTOP PROFILE=scv_8 VELOCITY=350 ACCEL=3500 SCV=8 CYCLE=8 STEP=88
; Check 89/90: profile=scv_8 velocity=350 accel=3500 scv=8 cycle=9
SET_VELOCITY_LIMIT VELOCITY=350 ACCEL=1000 SQUARE_CORNER_VELOCITY=5
G1 X59.860 Y84.042 Z10.000 F21000
M400
SET_VELOCITY_LIMIT VELOCITY=350 ACCEL=3500 SQUARE_CORNER_VELOCITY=8
G1 X59.860 Y84.936 F21000
G1 X70.528 Y83.183 F21000
G1 X70.528 Y66.936 F21000
G1 X100.985 Y-9.800 F21000
G1 X100.025 Y-9.800 F21000
G1 X100.025 Y-8.908 F21000
M400
SET_VELOCITY_LIMIT VELOCITY=20 ACCEL=500 SQUARE_CORNER_VELOCITY=8
G1 X100.025 Y-14.800 F1200
M400
G4 P100
QUERY_ENDSTOPS
Y_STEP_LOSS_ASSERT_ENDSTOP PROFILE=scv_8 VELOCITY=350 ACCEL=3500 SCV=8 CYCLE=9 STEP=89
; Check 90/90: profile=scv_8 velocity=350 accel=3500 scv=8 cycle=10
SET_VELOCITY_LIMIT VELOCITY=350 ACCEL=1000 SQUARE_CORNER_VELOCITY=5
G1 X59.860 Y84.042 Z10.000 F21000
M400
SET_VELOCITY_LIMIT VELOCITY=350 ACCEL=3500 SQUARE_CORNER_VELOCITY=8
G1 X59.860 Y84.936 F21000
G1 X70.528 Y83.183 F21000
G1 X70.528 Y66.936 F21000
G1 X100.985 Y-9.800 F21000
G1 X100.025 Y-9.800 F21000
G1 X100.025 Y-8.908 F21000
M400
SET_VELOCITY_LIMIT VELOCITY=20 ACCEL=500 SQUARE_CORNER_VELOCITY=8
G1 X100.025 Y-14.800 F1200
M400
G4 P100
QUERY_ENDSTOPS
Y_STEP_LOSS_ASSERT_ENDSTOP PROFILE=scv_8 VELOCITY=350 ACCEL=3500 SCV=8 CYCLE=10 STEP=90
M400
SET_VELOCITY_LIMIT VELOCITY=500 ACCEL=8000 SQUARE_CORNER_VELOCITY=10
RESPOND TYPE=echo MSG="Y print-motif characterization passed: 90 endstop checks completed."
M117 Y print-motif passed
